JILIN-1 GAOFEN 3G       
1 46459U 20065F   26066.59788688  .00067649  00000+0  90783-3 0  9991
2 46459  97.2459 120.8153 0013745  74.3456 285.9315 15.57611337304060
JILIN-1 GAOFEN 3H       
1 46460U 20065G   26066.61255364  .00063145  00000+0  89946-3 0  9992
2 46460  97.2406 117.5922 0007361  13.7405 346.4049 15.56099362304030
JILIN-1 GAOFEN 3J       
1 46462U 20065J   26066.58734755  .00167331  00000+0  11189-2 0  9991
2 46462  97.2403 123.3733 0004256 140.1275 220.0304 15.74806254304345
HAIYANG-2C              
1 46469U 20066A   26066.59162407 -.00000090  00000+0 -80838-5 0  9999
2 46469  65.9958 108.2365 0012677 249.9752 109.9952 13.83374201275448
HJ-2A                   
1 46478U 20067A   26066.65054288  .00001353  00000+0  20121-3 0  9992
2 46478  97.8880 147.4025 0002391 203.1500 156.9603 14.76555676293275
HJ-2B                   
1 46479U 20067B   26066.61932306  .00001014  00000+0  15257-3 0  9993
2 46479  97.8940 148.3168 0001913  90.2618 269.8811 14.76543378293276
GONETS-M 17             
1 46486U 20068A   26066.62073778 -.00000011  00000+0 -14960-3 0  9990
2 46486  82.4958  50.6765 0021255 257.0703 102.8003 12.42869079246547
GONETS-M 18             
1 46487U 20068B   26066.58436374 -.00000058  00000+0 -49267-3 0  9990
2 46487  82.4913  49.8554 0018545 253.2691 106.6353 12.42868677246528
GONETS-M 19             
1 46488U 20068C   26066.64191667 -.00000033  00000+0 -31088-3 0  9996
2 46488  82.4937  50.2515 0012324 269.6977  90.2690 12.42888224246639
DEKART                  
1 46493U 20068H   26066.58772866  .00019282  00000+0  57320-3 0  9992
2 46493  97.8778  68.7664 0007457 289.2949  70.7486 15.34780580300171
NORBI                   
1 46494U 20068J   26066.62046639  .00038369  00000+0  84387-3 0  9990
2 46494  97.8697  73.9600 0004832 261.3481  98.7219 15.43882620300516
SALSAT                  
1 46495U 20068K   26066.51222839  .00013690  00000+0  50125-3 0  9990
2 46495  97.8857  63.5159 0008413 306.1351  53.9108 15.28132776299826
ICEYE-X6                
1 46497U 20068M   26066.61450683  .00004145  00000+0  30549-3 0  9996
2 46497  98.0947  55.5036 0009316  74.9367 285.2888 15.03887668297964
NETSAT-4                
1 46504U 20068U   26066.57702413  .00026796  00000+0  66626-3 0  9992
2 46504  97.8645  66.9200 0004826 347.4063  12.7060 15.40268096300112
NETSAT-3                
1 46505U 20068V   26066.56561784  .00028170  00000+0  73138-3 0  9990
2 46505  97.8680  65.2691 0005274   6.4576 353.6735 15.38930477300030
NETSAT-1                
1 46506U 20068W   26066.52959145  .00021985  00000+0  71388-3 0  9991
2 46506  97.8745  60.6894 0006071  25.6684 334.4857 15.31944935299728
NETSAT-2                
1 46507U 20068X   26066.53202251  .00033485  00000+0  79968-3 0  9992
2 46507  97.8657  66.4713 0004805  28.2953 331.8552 15.41444145300057
