[{"OBJECT_NAME":"JILIN-1 GAOFEN 3G","OBJECT_ID":"2020-065F","EPOCH":"2026-03-07T14:20:57.426432","MEAN_MOTION":15.57611337,"ECCENTRICITY":0.00137455,"INCLINATION":97.2459,"RA_OF_ASC_NODE":120.8153,"ARG_OF_PERICENTER":74.3456,"MEAN_ANOMALY":285.9315,"EPHEMERIS_TYPE":0,"CLASSIFICATION_TYPE":"U","NORAD_CAT_ID":46459,"ELEMENT_SET_NO":999,"REV_AT_EPOCH":30406,"BSTAR":0.00090782718,"MEAN_MOTION_DOT":0.00067649,"MEAN_MOTION_DDOT":0},{"OBJECT_NAME":"JILIN-1 GAOFEN 3H","OBJECT_ID":"2020-065G","EPOCH":"2026-03-07T14:42:04.634496","MEAN_MOTION":15.56099362,"ECCENTRICITY":0.00073611,"INCLINATION":97.2406,"RA_OF_ASC_NODE":117.5922,"ARG_OF_PERICENTER":13.7405,"MEAN_ANOMALY":346.4049,"EPHEMERIS_TYPE":0,"CLASSIFICATION_TYPE":"U","NORAD_CAT_ID":46460,"ELEMENT_SET_NO":999,"REV_AT_EPOCH":30403,"BSTAR":0.00089946412,"MEAN_MOTION_DOT":0.00063145,"MEAN_MOTION_DDOT":0},{"OBJECT_NAME":"JILIN-1 GAOFEN 3J","OBJECT_ID":"2020-065J","EPOCH":"2026-03-07T14:05:46.828320","MEAN_MOTION":15.74806254,"ECCENTRICITY":0.00042562,"INCLINATION":97.2403,"RA_OF_ASC_NODE":123.3733,"ARG_OF_PERICENTER":140.1275,"MEAN_ANOMALY":220.0304,"EPHEMERIS_TYPE":0,"CLASSIFICATION_TYPE":"U","NORAD_CAT_ID":46462,"ELEMENT_SET_NO":999,"REV_AT_EPOCH":30434,"BSTAR":0.0011188799,"MEAN_MOTION_DOT":0.00167331,"MEAN_MOTION_DDOT":0},{"OBJECT_NAME":"HAIYANG-2C","OBJECT_ID":"2020-066A","EPOCH":"2026-03-07T14:11:56.319648","MEAN_MOTION":13.83374201,"ECCENTRICITY":0.00126774,"INCLINATION":65.9958,"RA_OF_ASC_NODE":108.2365,"ARG_OF_PERICENTER":249.9752,"MEAN_ANOMALY":109.9952,"EPHEMERIS_TYPE":0,"CLASSIFICATION_TYPE":"U","NORAD_CAT_ID":46469,"ELEMENT_SET_NO":999,"REV_AT_EPOCH":27544,"BSTAR":-8.083754e-6,"MEAN_MOTION_DOT":-9.0e-7,"MEAN_MOTION_DDOT":0},{"OBJECT_NAME":"HJ-2A","OBJECT_ID":"2020-067A","EPOCH":"2026-03-07T15:36:46.904832","MEAN_MOTION":14.76555676,"ECCENTRICITY":0.0002391,"INCLINATION":97.888,"RA_OF_ASC_NODE":147.4025,"ARG_OF_PERICENTER":203.15,"MEAN_ANOMALY":156.9603,"EPHEMERIS_TYPE":0,"CLASSIFICATION_TYPE":"U","NORAD_CAT_ID":46478,"ELEMENT_SET_NO":999,"REV_AT_EPOCH":29327,"BSTAR":0.00020121298,"MEAN_MOTION_DOT":1.353e-5,"MEAN_MOTION_DDOT":0},{"OBJECT_NAME":"HJ-2B","OBJECT_ID":"2020-067B","EPOCH":"2026-03-07T14:51:49.512384","MEAN_MOTION":14.76543378,"ECCENTRICITY":0.00019131,"INCLINATION":97.894,"RA_OF_ASC_NODE":148.3168,"ARG_OF_PERICENTER":90.2618,"MEAN_ANOMALY":269.8811,"EPHEMERIS_TYPE":0,"CLASSIFICATION_TYPE":"U","NORAD_CAT_ID":46479,"ELEMENT_SET_NO":999,"REV_AT_EPOCH":29327,"BSTAR":0.00015256585,"MEAN_MOTION_DOT":1.014e-5,"MEAN_MOTION_DDOT":0},{"OBJECT_NAME":"GONETS-M 17","OBJECT_ID":"2020-068A","EPOCH":"2026-03-07T14:53:51.744192","MEAN_MOTION":12.42869079,"ECCENTRICITY":0.00212552,"INCLINATION":82.4958,"RA_OF_ASC_NODE":50.6765,"ARG_OF_PERICENTER":257.0703,"MEAN_ANOMALY":102.8003,"EPHEMERIS_TYPE":0,"CLASSIFICATION_TYPE":"U","NORAD_CAT_ID":46486,"ELEMENT_SET_NO":999,"REV_AT_EPOCH":24654,"BSTAR":-0.00014959757,"MEAN_MOTION_DOT":-1.1e-7,"MEAN_MOTION_DDOT":0},{"OBJECT_NAME":"GONETS-M 18","OBJECT_ID":"2020-068B","EPOCH":"2026-03-07T14:01:29.027136","MEAN_MOTION":12.42868677,"ECCENTRICITY":0.00185458,"INCLINATION":82.4913,"RA_OF_ASC_NODE":49.8554,"ARG_OF_PERICENTER":253.2691,"MEAN_ANOMALY":106.6353,"EPHEMERIS_TYPE":0,"CLASSIFICATION_TYPE":"U","NORAD_CAT_ID":46487,"ELEMENT_SET_NO":999,"REV_AT_EPOCH":24652,"BSTAR":-0.00049266531,"MEAN_MOTION_DOT":-5.8e-7,"MEAN_MOTION_DDOT":0},{"OBJECT_NAME":"GONETS-M 19","OBJECT_ID":"2020-068C","EPOCH":"2026-03-07T15:24:21.600288","MEAN_MOTION":12.42888224,"ECCENTRICITY":0.00123248,"INCLINATION":82.4937,"RA_OF_ASC_NODE":50.2515,"ARG_OF_PERICENTER":269.6977,"MEAN_ANOMALY":90.269,"EPHEMERIS_TYPE":0,"CLASSIFICATION_TYPE":"U","NORAD_CAT_ID":46488,"ELEMENT_SET_NO":999,"REV_AT_EPOCH":24663,"BSTAR":-0.00031087573,"MEAN_MOTION_DOT":-3.3e-7,"MEAN_MOTION_DDOT":0},{"OBJECT_NAME":"DEKART","OBJECT_ID":"2020-068H","EPOCH":"2026-03-07T14:06:19.756224","MEAN_MOTION":15.3478058,"ECCENTRICITY":0.00074575,"INCLINATION":97.8778,"RA_OF_ASC_NODE":68.7664,"ARG_OF_PERICENTER":289.2949,"MEAN_ANOMALY":70.7486,"EPHEMERIS_TYPE":0,"CLASSIFICATION_TYPE":"U","NORAD_CAT_ID":46493,"ELEMENT_SET_NO":999,"REV_AT_EPOCH":30017,"BSTAR":0.00057319674,"MEAN_MOTION_DOT":0.00019282,"MEAN_MOTION_DDOT":0},{"OBJECT_NAME":"NORBI","OBJECT_ID":"2020-068J","EPOCH":"2026-03-07T14:53:28.296096","MEAN_MOTION":15.4388262,"ECCENTRICITY":0.00048326,"INCLINATION":97.8697,"RA_OF_ASC_NODE":73.96,"ARG_OF_PERICENTER":261.3481,"MEAN_ANOMALY":98.7219,"EPHEMERIS_TYPE":0,"CLASSIFICATION_TYPE":"U","NORAD_CAT_ID":46494,"ELEMENT_SET_NO":999,"REV_AT_EPOCH":30051,"BSTAR":0.00084387437,"MEAN_MOTION_DOT":0.00038369,"MEAN_MOTION_DDOT":0},{"OBJECT_NAME":"SALSAT","OBJECT_ID":"2020-068K","EPOCH":"2026-03-07T12:17:36.532896","MEAN_MOTION":15.28132776,"ECCENTRICITY":0.00084131,"INCLINATION":97.8857,"RA_OF_ASC_NODE":63.5159,"ARG_OF_PERICENTER":306.1351,"MEAN_ANOMALY":53.9108,"EPHEMERIS_TYPE":0,"CLASSIFICATION_TYPE":"U","NORAD_CAT_ID":46495,"ELEMENT_SET_NO":999,"REV_AT_EPOCH":29982,"BSTAR":0.0005012467,"MEAN_MOTION_DOT":0.0001369,"MEAN_MOTION_DDOT":0},{"OBJECT_NAME":"ICEYE-X6","OBJECT_ID":"2020-068M","EPOCH":"2026-03-07T14:44:53.390112","MEAN_MOTION":15.03887668,"ECCENTRICITY":0.00093162,"INCLINATION":98.0947,"RA_OF_ASC_NODE":55.5036,"ARG_OF_PERICENTER":74.9367,"MEAN_ANOMALY":285.2888,"EPHEMERIS_TYPE":0,"CLASSIFICATION_TYPE":"U","NORAD_CAT_ID":46497,"ELEMENT_SET_NO":999,"REV_AT_EPOCH":29796,"BSTAR":0.000305489,"MEAN_MOTION_DOT":4.145e-5,"MEAN_MOTION_DDOT":0},{"OBJECT_NAME":"NETSAT-4","OBJECT_ID":"2020-068U","EPOCH":"2026-03-07T13:50:54.884832","MEAN_MOTION":15.40268096,"ECCENTRICITY":0.00048262,"INCLINATION":97.8645,"RA_OF_ASC_NODE":66.92,"ARG_OF_PERICENTER":347.4063,"MEAN_ANOMALY":12.706,"EPHEMERIS_TYPE":0,"CLASSIFICATION_TYPE":"U","NORAD_CAT_ID":46504,"ELEMENT_SET_NO":999,"REV_AT_EPOCH":30011,"BSTAR":0.00066625555,"MEAN_MOTION_DOT":0.00026796,"MEAN_MOTION_DDOT":0},{"OBJECT_NAME":"NETSAT-3","OBJECT_ID":"2020-068V","EPOCH":"2026-03-07T13:34:29.381376","MEAN_MOTION":15.38930477,"ECCENTRICITY":0.00052749,"INCLINATION":97.868,"RA_OF_ASC_NODE":65.2691,"ARG_OF_PERICENTER":6.4576,"MEAN_ANOMALY":353.6735,"EPHEMERIS_TYPE":0,"CLASSIFICATION_TYPE":"U","NORAD_CAT_ID":46505,"ELEMENT_SET_NO":999,"REV_AT_EPOCH":30003,"BSTAR":0.00073138275,"MEAN_MOTION_DOT":0.0002817,"MEAN_MOTION_DDOT":0},{"OBJECT_NAME":"NETSAT-1","OBJECT_ID":"2020-068W","EPOCH":"2026-03-07T12:42:36.701280","MEAN_MOTION":15.31944935,"ECCENTRICITY":0.0006071,"INCLINATION":97.8745,"RA_OF_ASC_NODE":60.6894,"ARG_OF_PERICENTER":25.6684,"MEAN_ANOMALY":334.4857,"EPHEMERIS_TYPE":0,"CLASSIFICATION_TYPE":"U","NORAD_CAT_ID":46506,"ELEMENT_SET_NO":999,"REV_AT_EPOCH":29972,"BSTAR":0.0007138767,"MEAN_MOTION_DOT":0.00021985,"MEAN_MOTION_DDOT":0},{"OBJECT_NAME":"NETSAT-2","OBJECT_ID":"2020-068X","EPOCH":"2026-03-07T12:46:06.744864","MEAN_MOTION":15.41444145,"ECCENTRICITY":0.00048056,"INCLINATION":97.8657,"RA_OF_ASC_NODE":66.4713,"ARG_OF_PERICENTER":28.2953,"MEAN_ANOMALY":331.8552,"EPHEMERIS_TYPE":0,"CLASSIFICATION_TYPE":"U","NORAD_CAT_ID":46507,"ELEMENT_SET_NO":999,"REV_AT_EPOCH":30005,"BSTAR":0.00079967608,"MEAN_MOTION_DOT":0.00033485,"MEAN_MOTION_DDOT":0}]
